     2.100          NAVIGATION                              RINEX VERSION / TYPE
fic2rin                                 08/20/2008 01:09:48 PGM / RUN BY / DATE
                                                            END OF HEADER
23 08  8 20  0  0  0.0  .369713176042D-03  .159161572810D-11  .000000000000D+00
     .770000000000D+02 -.258437500000D+02  .381480175895D-08  .270268260400D+01
    -.122748315334D-05  .584964919835D-02  .127367675304D-04  .515371315002D+04
     .259200000000D+06 -.316649675369D-07  .431862282283D+00  .186264514923D-07
     .971542680309D+00  .141312500000D+03  .280452097188D+01 -.765889045210D-08
    -.151792037033D-09  .100000000000D+01  .149300000000D+04  .000000000000D+00
     .240000000000D+01  .000000000000D+00 -.200234353542D-07  .770000000000D+02
     .252006000000D+06  .400000000000D+01
24 08  8 20  0  0  0.0  .118436291814D-03  .295585778076D-11  .000000000000D+00
     .740000000000D+02  .750625000000D+02  .518414451186D-08 -.120900234334D+01
     .391528010368D-05  .757528911345D-02  .525824725628D-05  .515366257095D+04
     .259200000000D+06 -.316649675369D-07 -.161525710631D+01 -.875443220139D-07
     .951962109912D+00  .274437500000D+03 -.723242683126D+00 -.859535803116D-08
     .327513642258D-09  .100000000000D+01  .149300000000D+04  .000000000000D+00
     .340000000000D+01  .000000000000D+00 -.139698386192D-08  .740000000000D+02
     .252006000000D+06  .400000000000D+01
26 08  8 20  0  0  0.0  .312549993396D-03  .613908923697D-11  .000000000000D+00
     .400000000000D+02 -.684375000000D+01  .330335188358D-08  .215828419130D+01
    -.622123479843D-06  .191259070998D-01  .120624899864D-04  .515363225365D+04
     .259200000000D+06 -.121071934700D-06  .475658213805D+00 -.374391674995D-06
     .993656027111D+00  .164312500000D+03  .951810427250D+00 -.736566395233D-08
    -.571452374714D-11  .100000000000D+01  .149300000000D+04  .000000000000D+00
     .240000000000D+01  .000000000000D+00 -.605359673500D-08  .400000000000D+02
     .252006000000D+06  .400000000000D+01
27 08  8 20  0  0  0.0  .211373437196D-03  .284217094304D-11  .000000000000D+00
     .310000000000D+02  .560937500000D+02  .449411576939D-08 -.731364219135D+00
     .320933759212D-05  .211202988867D-01  .716187059879D-05  .515373609734D+04
     .259200000000D+06 -.238418579102D-06  .141519786415D+01  .219792127609D-06
     .970264697019D+00  .253500000000D+03 -.169166724718D+01 -.848356766036D-08
     .613239829615D-09  .100000000000D+01  .149300000000D+04  .000000000000D+00
     .240000000000D+01  .000000000000D+00 -.419095158577D-08  .310000000000D+02
     .252006000000D+06  .400000000000D+01
28 08  8 20  0  0  0.0 -.219387002289D-04 -.227373675443D-12  .000000000000D+00
     .650000000000D+02 -.714062500000D+02  .467840916023D-08 -.197308082226D+01
    -.371038913727D-05  .139387465315D-01  .487454235554D-05  .515363327599D+04
     .259200000000D+06  .212341547012D-06  .255058126896D+01 -.353902578354D-07
     .964511536143D+00  .280656250000D+03 -.209381451068D+01 -.810712340852D-08
    -.101789954246D-09  .100000000000D+01  .149300000000D+04  .000000000000D+00
     .340000000000D+01  .000000000000D+00 -.102445483208D-07  .650000000000D+02
     .252006000000D+06  .400000000000D+01
29 08  8 20  0  0  0.0 -.395281240344D-04  .795807864051D-12  .000000000000D+00
     .890000000000D+02  .184375000000D+01  .453518890882D-08  .247624889748D+00
     .949949026108D-07  .359413516708D-02  .122897326946D-04  .515361979866D+04
     .259200000000D+06  .372529029846D-08 -.269212502120D+01  .186264514923D-07
     .960127077032D+00  .144625000000D+03 -.138221675787D+01 -.799569019545D-08
     .225009372544D-10  .100000000000D+01  .149300000000D+04  .000000000000D+00
     .240000000000D+01  .000000000000D+00 -.884756445885D-08  .890000000000D+02
     .252006000000D+06  .400000000000D+01
30 08  8 20  0  0  0.0  .920887105167D-04  .204636307899D-11  .000000000000D+00
     .460000000000D+02 -.648125000000D+02  .518485882732D-08 -.151610665437D+01
    -.302121043205D-05  .109916692600D-01  .485405325890D-05  .515369297218D+04
     .259200000000D+06  .100582838058D-06  .248234211366D+01  .221654772758D-06
     .949526424455D+00  .278843750000D+03  .139085647263D+01 -.847856745208D-08
    -.204294223960D-09  .100000000000D+01  .149300000000D+04  .000000000000D+00
     .340000000000D+01  .000000000000D+00 -.838190317154D-08  .460000000000D+02
     .252006000000D+06  .400000000000D+01
31 08  8 20  0  0  0.0 -.250809825957D-04  .000000000000D+00  .000000000000D+00
     .750000000000D+02  .625312500000D+02  .450697344782D-08  .882971934891D+00
     .325404107571D-05  .663844810333D-02  .617466866970D-05  .515379809380D+04
     .259200000000D+06 -.223517417908D-07  .147173800944D+01 -.126659870148D-06
     .968674563584D+00  .261000000000D+03 -.122032798594D+01 -.831820362943D-08
     .564309220030D-09  .100000000000D+01  .149300000000D+04  .000000000000D+00
     .240000000000D+01  .000000000000D+00 -.130385160446D-07  .750000000000D+02
     .252006000000D+06  .400000000000D+01
32 08  8 20  0  0  0.0  .313937664032D-03  .147792889038D-11  .000000000000D+00
     .980000000000D+02 -.635312500000D+02  .459519140817D-08  .195806462063D+01
    -.348873436451D-05  .139271077933D-01  .493228435516D-05  .515378907967D+04
     .259200000000D+06  .255182385445D-06 -.533962573936D+00 -.186264514923D-07
     .968011826584D+00  .282437500000D+03 -.129799613395D+01 -.811783814054D-08
    -.621811615235D-09  .100000000000D+01  .149300000000D+04  .000000000000D+00
     .240000000000D+01  .000000000000D+00 -.279396772385D-08  .980000000000D+02
     .252006000000D+06  .400000000000D+01
